[{"OBJECT_NAME":"YUNHAI-1 03","OBJECT_ID":"2022-115A","EPOCH":"2026-03-09T22:42:18.502272","MEAN_MOTION":14.32645592,"ECCENTRICITY":0.00045037,"INCLINATION":98.5539,"RA_OF_ASC_NODE":68.3628,"ARG_OF_PERICENTER":355.0463,"MEAN_ANOMALY":5.0676,"EPHEMERIS_TYPE":0,"CLASSIFICATION_TYPE":"U","NORAD_CAT_ID":53877,"ELEMENT_SET_NO":999,"REV_AT_EPOCH":18130,"BSTAR":0.00016609215,"MEAN_MOTION_DOT":4.08e-6,"MEAN_MOTION_DDOT":0},{"OBJECT_NAME":"COSMOS 1763","OBJECT_ID":"1986-052A","EPOCH":"2026-03-09T23:28:12.624960","MEAN_MOTION":14.39290989,"ECCENTRICITY":0.00293207,"INCLINATION":74.0341,"RA_OF_ASC_NODE":29.585,"ARG_OF_PERICENTER":60.2432,"MEAN_ANOMALY":300.1634,"EPHEMERIS_TYPE":0,"CLASSIFICATION_TYPE":"U","NORAD_CAT_ID":16860,"ELEMENT_SET_NO":999,"REV_AT_EPOCH":7953,"BSTAR":9.8060384e-5,"MEAN_MOTION_DOT":2.8e-6,"MEAN_MOTION_DDOT":0}]
